[{"OBJECT_NAME":"MR-1","OBJECT_ID":"2026-015B","EPOCH":"2026-03-09T15:20:56.950656","MEAN_MOTION":13.52663769,"ECCENTRICITY":0.000405,"INCLINATION":88.9936,"RA_OF_ASC_NODE":278.6666,"ARG_OF_PERICENTER":35.3822,"MEAN_ANOMALY":324.7598,"EPHEMERIS_TYPE":0,"CLASSIFICATION_TYPE":"U","NORAD_CAT_ID":67557,"ELEMENT_SET_NO":999,"REV_AT_EPOCH":625,"BSTAR":7.6844e-5,"MEAN_MOTION_DOT":6.3e-7,"MEAN_MOTION_DDOT":0},{"OBJECT_NAME":"THORAD AGENA D DEB","OBJECT_ID":"1970-025AY","EPOCH":"2026-03-09T22:34:40.761984","MEAN_MOTION":13.51538902,"ECCENTRICITY":4.484e-5,"INCLINATION":100.1686,"RA_OF_ASC_NODE":44.2495,"ARG_OF_PERICENTER":319.0012,"MEAN_ANOMALY":106.3442,"EPHEMERIS_TYPE":0,"CLASSIFICATION_TYPE":"U","NORAD_CAT_ID":4675,"ELEMENT_SET_NO":999,"REV_AT_EPOCH":75635,"BSTAR":0.00011996532,"MEAN_MOTION_DOT":3.1e-7,"MEAN_MOTION_DDOT":0}]
